OBJECT_NAME,OBJECT_ID,EPOCH,MEAN_MOTION,ECCENTRICITY,INCLINATION,RA_OF_ASC_NODE,ARG_OF_PERICENTER,MEAN_ANOMALY,EPHEMERIS_TYPE,CLASSIFICATION_TYPE,NORAD_CAT_ID,ELEMENT_SET_NO,REV_AT_EPOCH,BSTAR,MEAN_MOTION_DOT,MEAN_MOTION_DDOT
STARS (KUKAI),2009-002G,2026-06-16T18:01:02.735040,14.95751573,.0008827,98.1561,115.0420,159.7566,200.4006,0,U,33498,999,93841,.26241E-3,.2863E-4,0
KKS-1 (KISEKI),2009-002H,2026-06-16T20:26:35.627136,14.83123438,.0006545,98.1189,90.2887,297.1837,62.8708,0,U,33499,999,93614,.14149E-3,.1098E-4,0
UK-DMC 2,2009-041C,2026-06-16T19:39:28.130112,14.76028101,.0001186,97.8838,302.7941,79.0726,281.0617,0,U,35683,999,90651,.16601E-3,.1094E-4,0
OCEANSAT-2,2009-051A,2026-06-16T20:12:38.912256,13.99664486,.0015176,98.2324,154.7279,236.9976,122.9733,0,U,35931,999,87928,-.63047E-4,-.13E-5,0
SWISSCUBE,2009-051B,2026-06-16T13:16:10.943616,14.62480577,.0005921,98.4037,75.4301,205.2603,154.8309,0,U,35932,999,88906,.16935E-3,.809E-5,0
BEESAT-1,2009-051C,2026-06-16T16:46:26.287104,14.61719794,.0004196,98.3964,75.2152,218.9046,141.1853,0,U,35933,999,88911,.14433E-3,.67E-5,0
ITUPSAT1,2009-051E,2026-06-16T16:32:42.236736,14.60440072,.0006243,98.4049,74.3979,235.8160,124.2448,0,U,35935,999,88866,.13815E-3,.621E-5,0
DMSP 5D-3 F18 (USA 210),2009-057A,2026-06-16T20:35:49.401024,14.14896590,.0009891,98.9037,148.6280,250.5797,109.4307,0,U,35951,999,85954,.1372E-3,.22E-5,0
PROBA-2,2009-059B,2026-06-16T18:13:01.432704,14.54862281,.0011974,98.2449,351.1177,283.6370,76.3493,0,U,36037,999,88146,.43007E-4,.139E-5,0
YAOGAN-7,2009-069A,2026-06-16T16:22:55.901280,14.78009423,.0025592,98.0072,53.5527,43.2823,317.0392,0,U,36110,999,88955,.62963E-4,.404E-5,0
XIWANG-1 (HOPE-1),2009-072B,2026-06-16T20:43:59.875680,13.16437342,.0006867,100.4027,121.7014,232.2967,127.7524,0,U,36122,999,79296,-.75025E-3,-.331E-5,0
COSMOS 2463,2010-017A,2026-06-16T18:20:13.322112,13.71665660,.0037321,82.9606,250.0166,130.0072,348.4353,0,U,36519,999,80787,.45479E-4,.57E-6,0
CARTOSAT-2B,2010-035A,2026-06-16T20:47:02.215968,14.78660536,.0011132,97.9953,218.4178,184.7879,175.3228,0,U,36795,999,85980,.44952E-4,.277E-5,0
TISAT 1,2010-035E,2026-06-16T14:16:02.570880,15.31688582,.0001322,98.0714,114.0908,168.3617,191.7653,0,U,36799,999,86761,.54375E-3,.16569E-3,0
YAOGAN-10,2010-038A,2026-06-16T21:22:45.279840,14.85345978,.0001643,97.8970,191.2968,86.8932,34.0490,0,U,36834,999,85716,.96696E-4,.778E-5,0
SHIJIAN-6 04B (SJ-6 04B),2010-051B,2026-06-16T21:20:51.700128,14.99313308,.0008001,97.8678,173.2962,315.6412,44.4169,0,U,37180,999,85563,.86162E-4,.991E-5,0
FENGYUN 3B,2010-059A,2026-06-16T21:38:01.161312,14.14840425,.002188,98.9619,213.9146,184.7596,348.0356,0,U,37214,999,80738,-.12234E-3,-.282E-5,0
COSMO-SKYMED 4,2010-060A,2026-06-16T20:04:04.174752,14.82153220,.0001425,97.8879,351.4408,80.6991,279.4383,0,U,37216,999,84451,.28478E-4,.174E-5,0
O/OREOS (USA 219),2010-062C,2026-06-16T20:40:16.756320,14.93743675,.0012545,71.9713,81.0777,63.8034,296.4425,0,U,37224,999,11659,.18071E-3,.1854E-4,0
RESOURCESAT-2,2011-015A,2026-06-16T19:22:46.108704,14.21606401,.0010194,98.7644,235.2519,256.7139,103.2901,0,U,37387,999,78612,.54701E-4,.76E-6,0
YOUTHSAT,2011-015B,2026-06-16T21:00:00.437184,14.25630167,.001423,98.3682,141.9431,348.0549,69.9288,0,U,37388,999,78759,.76208E-4,.139E-5,0
APRIZESAT 6,2011-044F,2026-06-16T17:44:28.695264,14.76915295,.0044499,98.2364,78.2297,87.4280,328.0393,0,U,37793,999,79708,.94864E-4,.622E-5,0
JUGNU,2011-058B,2026-06-16T17:28:08.131296,14.13776645,.0018636,19.9615,311.2203,71.1708,330.3428,0,U,37839,999,75896,.68238E-4,.398E-5,0
SRMSAT,2011-058D,2026-06-16T09:23:02.445792,14.11575402,.00118046,19.9721,64.2860,194.8507,321.4366,0,U,37841,999,75770,.48036889E-4,.354E-5,0
SUOMI NPP,2011-061A,2026-06-16T20:19:52.979808,14.19517265,.0001554,98.7953,108.7255,7.5604,352.5595,0,U,37849,999,75839,.42306E-4,.45E-6,0
YAOGAN-12,2011-066B,2026-06-16T20:56:21.336288,15.26596462,.0008627,97.1139,206.4553,217.7000,142.3636,0,U,37875,999,81199,.15557E-3,.4007E-4,0
