STARS (KUKAI)           
1 33498U 09002G   26167.75072610  .00002863  00000+0  26241-3 0  9994
2 33498  98.1561 115.0420 0008827 159.7566 200.4006 14.95751573938410
KKS-1 (KISEKI)          
1 33499U 09002H   26167.85180124  .00001098  00000+0  14149-3 0  9999
2 33499  98.1189  90.2887 0006545 297.1837  62.8708 14.83123438936148
UK-DMC 2                
1 35683U 09041C   26167.81907558  .00001094  00000+0  16601-3 0  9994
2 35683  97.8838 302.7941 0001186  79.0726 281.0617 14.76028101906519
OCEANSAT-2              
1 35931U 09051A   26167.84211704 -.00000130  00000+0 -63047-4 0  9994
2 35931  98.2324 154.7279 0015176 236.9976 122.9733 13.99664486879285
SWISSCUBE               
1 35932U 09051B   26167.55290444  .00000809  00000+0  16935-3 0  9995
2 35932  98.4037  75.4301 0005921 205.2603 154.8309 14.62480577889065
BEESAT-1                
1 35933U 09051C   26167.69891536  .00000670  00000+0  14433-3 0  9997
2 35933  98.3964  75.2152 0004196 218.9046 141.1853 14.61719794889115
ITUPSAT1                
1 35935U 09051E   26167.68937774  .00000621  00000+0  13815-3 0  9992
2 35935  98.4049  74.3979 0006243 235.8160 124.2448 14.60440072888669
DMSP 5D-3 F18 (USA 210) 
1 35951U 09057A   26167.85821066  .00000220  00000+0  13720-3 0  9991
2 35951  98.9037 148.6280 0009891 250.5797 109.4307 14.14896590859544
PROBA-2                 
1 36037U 09059B   26167.75904436  .00000139  00000+0  43007-4 0  9992
2 36037  98.2449 351.1177 0011974 283.6370  76.3493 14.54862281881463
YAOGAN-7                
1 36110U 09069A   26167.68259145  .00000404  00000+0  62963-4 0  9994
2 36110  98.0072  53.5527 0025592  43.2823 317.0392 14.78009423889559
XIWANG-1 (HOPE-1)       
1 36122U 09072B   26167.86388745 -.00000331  00000+0 -75025-3 0  9993
2 36122 100.4027 121.7014 0006867 232.2967 127.7524 13.16437342792969
COSMOS 2463             
1 36519U 10017A   26167.76404308  .00000057  00000+0  45479-4 0  9991
2 36519  82.9606 250.0166 0037321 130.0072 348.4353 13.71665660807877
CARTOSAT-2B             
1 36795U 10035A   26167.86599787  .00000277  00000+0  44952-4 0  9993
2 36795  97.9953 218.4178 0011132 184.7879 175.3228 14.78660536859801
TISAT 1                 
1 36799U 10035E   26167.59447420  .00016569  00000+0  54375-3 0  9993
2 36799  98.0714 114.0908 0001322 168.3617 191.7653 15.31688582867615
YAOGAN-10               
1 36834U 10038A   26167.89080185  .00000778  00000+0  96696-4 0  9998
2 36834  97.8970 191.2968 0001643  86.8932  34.0490 14.85345978857163
SHIJIAN-6 04B (SJ-6 04B)
1 37180U 10051B   26167.88948727  .00000991  00000+0  86162-4 0  9996
2 37180  97.8678 173.2962 0008001 315.6412  44.4169 14.99313308855633
FENGYUN 3B              
1 37214U 10059A   26167.90140233 -.00000282  00000+0 -12234-3 0  9994
2 37214  98.9619 213.9146 0021880 184.7596 348.0356 14.14840425807384
COSMO-SKYMED 4          
1 37216U 10060A   26167.83615943  .00000174  00000+0  28478-4 0  9991
2 37216  97.8879 351.4408 0001425  80.6991 279.4383 14.82153220844515
O/OREOS (USA 219)       
1 37224U 10062C   26167.86130505  .00001854  00000+0  18071-3 0  9994
2 37224  71.9713  81.0777 0012545  63.8034 296.4425 14.93743675116592
RESOURCESAT-2           
1 37387U 11015A   26167.80747811  .00000076  00000+0  54701-4 0  9997
2 37387  98.7644 235.2519 0010194 256.7139 103.2901 14.21606401786128
YOUTHSAT                
1 37388U 11015B   26167.87500506  .00000139  00000+0  76208-4 0  9999
2 37388  98.3682 141.9431 0014230 348.0549  69.9288 14.25630167787596
APRIZESAT 6             
1 37793U 11044F   26167.73922101  .00000622  00000+0  94864-4 0  9990
2 37793  98.2364  78.2297 0044499  87.4280 328.0393 14.76915295797085
JUGNU                   
1 37839U 11058B   26167.72787189  .00000398  00000+0  68238-4 0  9996
2 37839  19.9615 311.2203 0018636  71.1708 330.3428 14.13776645758965
SRMSAT                  
1 37841U 11058D   26167.39100053  .00000354  00000+0  48037-4 0  9998
2 37841  19.9721  64.2860 0011804 194.8507 321.4366 14.11575402757709
SUOMI NPP               
1 37849U 11061A   26167.84714097  .00000045  00000+0  42306-4 0  9999
2 37849  98.7953 108.7255 0001554   7.5604 352.5595 14.19517265758396
YAOGAN-12               
1 37875U 11066B   26167.87246917  .00004007  00000+0  15557-3 0  9996
2 37875  97.1139 206.4553 0008627 217.7000 142.3636 15.26596462811996
